NORAD_CAT_ID,OBJECT_NAME,OBJECT_TYPE,EPOCH,MEAN_MOTION,ECCENTRICITY,INCLINATION,RA_OF_ASC_NODE,ARG_OF_PERICENTER,MEAN_ANOMALY,BSTAR,MEAN_MOTION_DOT,MEAN_MOTION_DDOT,TLE_LINE0,TLE_LINE1,TLE_LINE2,SEMIMAJOR_AXIS,PERIOD,APOGEE,PERIGEE,DECAYED
52577.0,STARLINK-3836,PAYLOAD,2023-05-27 02:00:27,15.08836104,0.0001131,53.2179,22.3266,102.7599,257.352,8.2204e-06,-1.57e-06,0.0,0 STARLINK-3836,1 52577U 22051AT  23147.08364808 -.00000157  00000-0  82204-5 0  9995,2 52577  53.2179  22.3266 0001131 102.7599 257.3520 15.08836104 57827,6917.892,95.438,540.54,538.975,0.0
52577.0,STARLINK-3836,PAYLOAD,2023-05-27 21:05:05,15.0883673,0.000105,53.2183,18.7609,102.5114,257.5996,3.3671e-05,2.48e-06,0.0,0 STARLINK-3836,1 52577U 22051AT  23147.87853254  .00000248  00000-0  33671-4 0  9993,2 52577  53.2183  18.7609 0001050 102.5114 257.5996 15.08836730 57872,6917.89,95.438,540.482,539.029,0.0
52577.0,STARLINK-3836,PAYLOAD,2023-05-28 00:15:51,15.08840243,9.44e-05,53.2181,18.167,90.2656,269.8444,7.2038e-05,8.59e-06,0.0,0 STARLINK-3836,1 52577U 22051AT  23148.01101008  .00000859  00000-0  72038-4 0  9991,2 52577  53.2181  18.1670 0000944  90.2656 269.8444 15.08840243 57897,6917.88,95.438,540.398,539.092,0.0
52577.0,STARLINK-3836,PAYLOAD,2023-05-28 20:55:51,15.08843586,9.6e-05,53.218,14.3014,97.9028,262.2073,0.00012484,1.7e-05,0.0,0 STARLINK-3836,1 52577U 22051AT  23148.87212910  .00001700  00000-0  12484-3 0  9994,2 52577  53.2180  14.3014 0000960  97.9028 262.2073 15.08843586 58092,6917.869,95.437,540.399,539.07,0.0
52577.0,STARLINK-3836,PAYLOAD,2023-05-29 00:06:37,15.08847892,0.0001053,53.2178,13.7059,94.8643,265.2469,0.00019507,2.819e-05,0.0,0 STARLINK-3836,1 52577U 22051AT  23149.00460577  .00002819  00000-0  19507-3 0  9999,2 52577  53.2178  13.7059 0001053  94.8643 265.2469 15.08847892 58045,6917.856,95.437,540.45,538.993,0.0
52577.0,STARLINK-3836,PAYLOAD,2023-05-29 20:46:39,15.08839869,0.0001182,53.2183,9.8406,82.645,277.4676,-0.00010219,-1.914e-05,0.0,0 STARLINK-3836,1 52577U 22051AT  23149.86573179 -.00001914  00000-0 -10219-3 0  9994,2 52577  53.2183   9.8406 0001182  82.6450 277.4676 15.08839869 58171,6917.881,95.438,540.563,538.928,0.0
52577.0,STARLINK-3836,PAYLOAD,2023-05-29 22:22:02,15.08836932,0.000105,53.2188,9.5439,84.8072,275.304,6.1292e-05,6.88e-06,0.0,0 STARLINK-3836,1 52577U 22051AT  23149.93197607  .00000688  00000-0  61292-4 0  9993,2 52577  53.2188   9.5439 0001050  84.8072 275.3040 15.08836932 58256,6917.89,95.438,540.481,539.028,0.0
52577.0,STARLINK-3836,PAYLOAD,2023-05-30 14:15:53,15.08846707,0.0001109,53.2189,6.5667,119.1116,240.9988,-1.6284e-06,-3.14e-06,0.0,0 STARLINK-3836,1 52577U 22051AT  23150.59437109 -.00000314  00000-0 -16284-5 0  9991,2 52577  53.2189   6.5667 0001109 119.1116 240.9988 15.08846707 58286,6917.86,95.437,540.492,538.958,0.0
52577.0,STARLINK-3836,PAYLOAD,2023-05-30 19:02:02,15.08848598,0.0001105,53.2188,5.6777,106.9519,253.1594,6.6021e-05,7.63e-06,0.0,0 STARLINK-3836,1 52577U 22051AT  23150.79308702  .00000763  00000-0  66021-4 0  9998,2 52577  53.2188   5.6777 0001105 106.9519 253.1594 15.08848598 58384,6917.854,95.437,540.484,538.955,0.0
52577.0,STARLINK-3836,PAYLOAD,2023-05-30 20:37:25,15.08850485,0.0001149,53.2192,5.3802,95.4091,264.7032,8.1205e-05,1.005e-05,0.0,0 STARLINK-3836,1 52577U 22051AT  23150.85932570  .00001005  00000-0  81205-4 0  9992,2 52577  53.2192   5.3802 0001149  95.4091 264.7032 15.08850485 58327,6917.848,95.437,540.508,538.918,0.0
52577.0,STARLINK-3836,PAYLOAD,2023-05-31 14:06:40,15.08841711,0.0001006,53.2183,2.1108,83.1452,276.9654,9.1789e-05,1.173e-05,0.0,0 STARLINK-3836,1 52577U 22051AT  23151.58797068  .00001173  00000-0  91789-4 0  9998,2 52577  53.2183   2.1108 0001006  83.1452 276.9654 15.08841711 58437,6917.875,95.437,540.436,539.044,0.0
52577.0,STARLINK-3836,PAYLOAD,2023-05-31 18:52:50,15.08841864,0.0001031,53.2187,1.2185,85.4043,274.7067,8.7072e-05,1.098e-05,0.0,0 STARLINK-3836,1 52577U 22051AT  23151.78669041  .00001098  00000-0  87072-4 0  9995,2 52577  53.2187   1.2185 0001031  85.4043 274.7067 15.08841864 58539,6917.875,95.437,540.453,539.026,0.0
52577.0,STARLINK-3836,PAYLOAD,2023-05-31 20:28:13,15.08843383,0.0001007,53.218,0.9209,85.8319,274.2788,9.7584e-05,1.266e-05,0.0,0 STARLINK-3836,1 52577U 22051AT  23151.85292881  .00001266  00000-0  97584-4 0  9993,2 52577  53.2180   0.9209 0001007  85.8319 274.2788 15.08843383 58474,6917.87,95.437,540.432,539.038,0.0
52577.0,STARLINK-3836,PAYLOAD,2023-05-31 23:38:59,15.08847227,0.0001055,53.2179,0.3254,86.4441,273.6672,0.00013295,1.829e-05,0.0,0 STARLINK-3836,1 52577U 22051AT  23151.98540522  .00001829  00000-0  13295-3 0  9996,2 52577  53.2179   0.3254 0001055  86.4441 273.6672 15.08847227 58490,6917.858,95.437,540.453,538.993,0.0
52577.0,STARLINK-3836,PAYLOAD,2023-06-01 20:19:00,15.08843805,0.0001166,53.2182,356.4582,91.7408,268.3717,-1.0547e-06,-3.05e-06,0.0,0 STARLINK-3836,1 52577U 22051AT  23152.84653007 -.00000305  00000-0 -10547-5 0  9994,2 52577  53.2182 356.4582 0001166  91.7408 268.3717 15.08843805 58699,6917.869,95.437,540.54,538.927,0.0
52577.0,STARLINK-3836,PAYLOAD,2023-06-01 23:29:46,15.08846848,9.72e-05,53.218,355.865,89.5793,270.531,7.3088e-05,8.76e-06,0.0,0 STARLINK-3836,1 52577U 22051AT  23152.97900589  .00000876  00000-0  73088-4 0  9997,2 52577  53.2180 355.8650 0000972  89.5793 270.5310 15.08846848 58641,6917.859,95.437,540.397,539.052,0.0
52577.0,STARLINK-3836,PAYLOAD,2023-06-02 18:34:24,15.0883742,0.0001092,53.2184,352.2953,101.0016,259.1099,2e-05,3.1e-07,0.0,0 STARLINK-3836,1 52577U 22051AT  23153.77389587  .00000031  00000-0  20000-4 0  9994,2 52577  53.2184 352.2953 0001092 101.0016 259.1099 15.08837420 58838,6917.888,95.438,540.509,538.998,0.0
52577.0,STARLINK-3836,PAYLOAD,2023-06-02 20:09:47,15.08838346,0.0001127,53.2181,351.9982,97.1345,262.9775,3.5711e-05,2.81e-06,0.0,0 STARLINK-3836,1 52577U 22051AT  23153.84013502  .00000281  00000-0  35711-4 0  9995,2 52577  53.2181 351.9982 0001127  97.1345 262.9775 15.08838346 58776,6917.885,95.438,540.53,538.971,0.0
52577.0,STARLINK-3836,PAYLOAD,2023-06-03 12:03:39,15.08834771,0.0001082,53.2168,349.0267,109.0143,251.0966,8.8415e-05,1.119e-05,0.0,0 STARLINK-3836,1 52577U 22051AT  23154.50253797  .00001119  00000-0  88415-4 0  9991,2 52577  53.2168 349.0267 0001082 109.0143 251.0966 15.08834771 58874,6917.896,95.438,540.51,539.013,0.0
52577.0,STARLINK-3836,PAYLOAD,2023-06-03 18:25:11,15.08862964,9.6e-05,53.2171,347.8364,102.7621,257.3479,-0.00033723,-5.654e-05,0.0,0 STARLINK-3836,1 52577U 22051AT  23154.76749315 -.00005654  00000-0 -33723-3 0  9996,2 52577  53.2171 347.8364 0000960 102.7621 257.3479 15.08862964 58982,6917.81,95.436,540.339,539.011,0.0
52577.0,STARLINK-3836,PAYLOAD,2023-06-03 20:00:34,15.08840578,0.000103,53.2174,347.5398,100.9311,259.1797,3.7839e-05,3.15e-06,0.0,0 STARLINK-3836,1 52577U 22051AT  23154.83373731  .00000315  00000-0  37839-4 0  9999,2 52577  53.2174 347.5398 0001030 100.9311 259.1797 15.08840578 58928,6917.879,95.438,540.456,539.031,0.0
52577.0,STARLINK-3836,PAYLOAD,2023-06-03 23:11:20,15.08842872,0.0001067,53.2174,346.9445,103.5059,256.6052,8.0235e-05,9.89e-06,0.0,0 STARLINK-3836,1 52577U 22051AT  23154.96621509  .00000989  00000-0  80235-4 0  9997,2 52577  53.2174 346.9445 0001067 103.5059 256.6052 15.08842872 59018,6917.872,95.437,540.475,538.998,0.0
52577.0,STARLINK-3836,PAYLOAD,2023-06-04 11:54:26,15.0883426,0.0001084,53.2176,344.5654,103.082,257.0293,0.00015347,2.155e-05,0.0,0 STARLINK-3836,1 52577U 22051AT  23155.49614124  .00002155  00000-0  15347-3 0  9999,2 52577  53.2176 344.5654 0001084 103.0820 257.0293 15.08834260 59021,6917.898,95.438,540.513,539.013,0.0
52577.0,STARLINK-3836,PAYLOAD,2023-06-04 18:15:59,15.08838896,0.0001084,53.2178,343.3759,101.6363,258.4751,0.00010515,1.386e-05,0.0,0 STARLINK-3836,1 52577U 22051AT  23155.76109996  .00001386  00000-0  10515-3 0  9992,2 52577  53.2178 343.3759 0001084 101.6363 258.4751 15.08838896 59137,6917.884,95.438,540.499,538.999,0.0
52577.0,STARLINK-3836,PAYLOAD,2023-06-04 21:26:45,15.08843003,0.0001092,53.2179,342.7812,100.7302,259.3813,0.0001368,1.89e-05,0.0,0 STARLINK-3836,1 52577U 22051AT  23155.89357667  .00001890  00000-0  13680-3 0  9992,2 52577  53.2179 342.7812 0001092 100.7302 259.3813 15.08843003 59082,6917.871,95.437,540.492,538.981,0.0
52577.0,STARLINK-3836,PAYLOAD,2023-06-05 11:45:13,15.08839306,0.0001059,53.2186,340.1051,98.2929,261.8184,0.00015392,2.163e-05,0.0,0 STARLINK-3836,1 52577U 22051AT  23156.48973956  .00002163  00000-0  15392-3 0  9999,2 52577  53.2186 340.1051 0001059  98.2929 261.8184 15.08839306 59176,6917.883,95.438,540.48,539.015,0.0
52577.0,STARLINK-3836,PAYLOAD,2023-06-05 19:42:08,15.0884545,0.0001135,53.2177,338.6184,97.8669,262.2452,0.00015125,2.12e-05,0.0,0 STARLINK-3836,1 52577U 22051AT  23156.82093537  .00002120  00000-0  15125-3 0  9992,2 52577  53.2177 338.6184 0001135  97.8669 262.2452 15.08845450 59222,6917.864,95.437,540.514,538.944,0.0
52577.0,STARLINK-3836,PAYLOAD,2023-06-06 00:28:17,15.08852651,0.0001068,53.2176,337.7257,95.3072,264.8042,0.0001955,2.826e-05,0.0,0 STARLINK-3836,1 52577U 22051AT  23157.01965084  .00002826  00000-0  19550-3 0  9998,2 52577  53.2176 337.7257 0001068  95.3072 264.8042 15.08852651 59323,6917.842,95.437,540.446,538.968,0.0
52577.0,STARLINK-3836,PAYLOAD,2023-06-06 11:36:00,15.08833721,8.41e-05,53.218,335.6445,87.4231,272.6857,-3.1394e-05,-7.87e-06,0.0,0 STARLINK-3836,1 52577U 22051AT  23157.48334082 -.00000787  00000-0 -31394-4 0  9994,2 52577  53.2180 335.6445 0000841  87.4231 272.6857 15.08833721 59329,6917.9,95.438,540.346,539.183,0.0
52577.0,STARLINK-3836,PAYLOAD,2023-06-06 14:46:46,15.0883768,8.47e-05,53.2176,335.0493,94.7821,265.3268,3.4978e-05,2.69e-06,0.0,0 STARLINK-3836,1 52577U 22051AT  23157.61581882  .00000269  00000-0  34978-4 0  9995,2 52577  53.2176 335.0493 0000847  94.7821 265.3268 15.08837680 59416,6917.887,95.438,540.338,539.167,0.0
